{"type": "FeatureCollection", "features": [{"type": "Feature", "properties": {"norad_id": 2807, "name": "OPS 7218 (TRANSIT 16)", "group": "nnss", "lat": -58.10837588927492, "lon": 174.07021883850047, "alt_km": 1092.4265121736244, "timestamp": "2025-12-26T22:28:06.052689+00:00", "meta": {"OBJECT_NAME": "OPS 7218 (TRANSIT 16)", "OBJECT_ID": "1967-048A", "EPOCH": "2025-12-26T18:35:31.647840", "MEAN_MOTION": 13.50725123, "ECCENTRICITY": 0.0022129, "INCLINATION": 89.6735, "RA_OF_ASC_NODE": 353.5505, "ARG_OF_PERICENTER": 76.737, "MEAN_ANOMALY": 96.338, "EPHEMERIS_TYPE": 0, "CLASSIFICATION_TYPE": "U", "NORAD_CAT_ID": 2807, "ELEMENT_SET_NO": 999, "REV_AT_EPOCH": 88465, "BSTAR": 0.00015499, "MEAN_MOTION_DOT": 1.1e-06, "MEAN_MOTION_DDOT": 0}, "tle": {"line1": "1 02807U 67048A   25360.77467185  .00000110  00000+0  15499-3 0  9995", "line2": "2 02807  89.6735 353.5505 0022129  76.7370  96.3380 13.50725123884658"}}, "geometry": {"type": "Point", "coordinates": [174.07021883850047, -58.10837588927492]}}, {"type": "Feature", "properties": {"norad_id": 2965, "name": "OPS 4947 (TRANSIT 17)", "group": "nnss", "lat": 81.33997005509386, "lon": 28.2955430488897, "alt_km": 1064.7593681081653, "timestamp": "2025-12-26T22:28:06.052713+00:00", "meta": {"OBJECT_NAME": "OPS 4947 (TRANSIT 17)", "OBJECT_ID": "1967-092A", "EPOCH": "2025-12-26T15:34:01.652736", "MEAN_MOTION": 13.53457224, "ECCENTRICITY": 0.0047243, "INCLINATION": 89.2485, "RA_OF_ASC_NODE": 23.374, "ARG_OF_PERICENTER": 193.3474, "MEAN_ANOMALY": 288.3053, "EPHEMERIS_TYPE": 0, "CLASSIFICATION_TYPE": "U", "NORAD_CAT_ID": 2965, "ELEMENT_SET_NO": 999, "REV_AT_EPOCH": 87285, "BSTAR": 0.00018711, "MEAN_MOTION_DOT": 1.38e-06, "MEAN_MOTION_DDOT": 0}, "tle": {"line1": "1 02965U 67092A   25360.64863024  .00000138  00000+0  18711-3 0  9997", "line2": "2 02965  89.2485  23.3740 0047243 193.3474 288.3053 13.53457224872855"}}, "geometry": {"type": "Point", "coordinates": [28.2955430488897, 81.33997005509386]}}, {"type": "Feature", "properties": {"norad_id": 3133, "name": "OPS 7034 (TRANSIT 18)", "group": "nnss", "lat": 45.14528930557358, "lon": 93.70813579701961, "alt_km": 1007.0819189088379, "timestamp": "2025-12-26T22:28:06.052727+00:00", "meta": {"OBJECT_NAME": "OPS 7034 (TRANSIT 18)", "OBJECT_ID": "1968-012A", "EPOCH": "2025-12-26T18:31:16.182048", "MEAN_MOTION": 13.51569067, "ECCENTRICITY": 0.0075098, "INCLINATION": 90.0285, "RA_OF_ASC_NODE": 273.679, "ARG_OF_PERICENTER": 128.8758, "MEAN_ANOMALY": 286.0505, "EPHEMERIS_TYPE": 0, "CLASSIFICATION_TYPE": "U", "NORAD_CAT_ID": 3133, "ELEMENT_SET_NO": 999, "REV_AT_EPOCH": 57108, "BSTAR": 0.0002064, "MEAN_MOTION_DOT": 1.47e-06, "MEAN_MOTION_DDOT": 0}, "tle": {"line1": "1 03133U 68012A   25360.77171507  .00000147  00000+0  20640-3 0  9994", "line2": "2 03133  90.0285 273.6790 0075098 128.8758 286.0505 13.51569067571088"}}, "geometry": {"type": "Point", "coordinates": [93.70813579701961, 45.14528930557358]}}, {"type": "Feature", "properties": {"norad_id": 4507, "name": "NNSS 19 (TRANSIT 19)", "group": "nnss", "lat": 87.365771423619, "lon": 54.643388297670214, "alt_km": 1178.1773740756453, "timestamp": "2025-12-26T22:28:06.052738+00:00", "meta": {"OBJECT_NAME": "NNSS 19 (TRANSIT 19)", "OBJECT_ID": "1970-067A", "EPOCH": "2025-12-26T14:53:26.024640", "MEAN_MOTION": 13.51317911, "ECCENTRICITY": 0.0170229, "INCLINATION": 90.0046, "RA_OF_ASC_NODE": 234.5432, "ARG_OF_PERICENTER": 252.7431, "MEAN_ANOMALY": 105.5031, "EPHEMERIS_TYPE": 0, "CLASSIFICATION_TYPE": "U", "NORAD_CAT_ID": 4507, "ELEMENT_SET_NO": 999, "REV_AT_EPOCH": 72409, "BSTAR": 0.00012342, "MEAN_MOTION_DOT": 9.5e-07, "MEAN_MOTION_DDOT": 0}, "tle": {"line1": "1 04507U 70067A   25360.62044010  .00000095  00000+0  12342-3 0  9997", "line2": "2 04507  90.0046 234.5432 0170229 252.7431 105.5031 13.51317911724094"}}, "geometry": {"type": "Point", "coordinates": [54.643388297670214, 87.365771423619]}}, {"type": "Feature", "properties": {"norad_id": 6909, "name": "NNSS 20 (TRANSIT 20)", "group": "nnss", "lat": 65.30966134520182, "lon": 74.52783142325436, "alt_km": 963.3448678030381, "timestamp": "2025-12-26T22:28:06.052750+00:00", "meta": {"OBJECT_NAME": "NNSS 20 (TRANSIT 20)", "OBJECT_ID": "1973-081A", "EPOCH": "2025-12-26T04:24:52.750368", "MEAN_MOTION": 13.7144138, "ECCENTRICITY": 0.0156059, "INCLINATION": 89.8559, "RA_OF_ASC_NODE": 254.8528, "ARG_OF_PERICENTER": 38.4618, "MEAN_ANOMALY": 322.7546, "EPHEMERIS_TYPE": 0, "CLASSIFICATION_TYPE": "U", "NORAD_CAT_ID": 6909, "ELEMENT_SET_NO": 999, "REV_AT_EPOCH": 80545, "BSTAR": 0.00027705, "MEAN_MOTION_DOT": 2.83e-06, "MEAN_MOTION_DDOT": 0}, "tle": {"line1": "1 06909U 73081A   25360.18394387  .00000283  00000+0  27705-3 0  9998", "line2": "2 06909  89.8559 254.8528 0156059  38.4618 322.7546 13.71441380805453"}}, "geometry": {"type": "Point", "coordinates": [74.52783142325436, 65.30966134520182]}}, {"type": "Feature", "properties": {"norad_id": 10457, "name": "TRANSAT", "group": "nnss", "lat": -22.855247071060727, "lon": 77.94525006570578, "alt_km": 1101.220052017834, "timestamp": "2025-12-26T22:28:06.052761+00:00", "meta": {"OBJECT_NAME": "TRANSAT", "OBJECT_ID": "1977-106A", "EPOCH": "2025-12-26T17:50:28.291200", "MEAN_MOTION": 13.48945799, "ECCENTRICITY": 0.0026631, "INCLINATION": 89.6474, "RA_OF_ASC_NODE": 78.1008, "ARG_OF_PERICENTER": 149.9348, "MEAN_ANOMALY": 331.6501, "EPHEMERIS_TYPE": 0, "CLASSIFICATION_TYPE": "U", "NORAD_CAT_ID": 10457, "ELEMENT_SET_NO": 999, "REV_AT_EPOCH": 36932, "BSTAR": 0.00012372, "MEAN_MOTION_DOT": 8.8e-07, "MEAN_MOTION_DDOT": 0}, "tle": {"line1": "1 10457U 77106A   25360.74338300  .00000088  00000+0  12372-3 0  9995", "line2": "2 10457  89.6474  78.1008 0026631 149.9348 331.6501 13.48945799369328"}}, "geometry": {"type": "Point", "coordinates": [77.94525006570578, -22.855247071060727]}}, {"type": "Feature", "properties": {"norad_id": 12458, "name": "NOVA 1", "group": "nnss", "lat": 8.660852115324117, "lon": 91.2068831604255, "alt_km": 1168.0520301332172, "timestamp": "2025-12-26T22:28:06.052772+00:00", "meta": {"OBJECT_NAME": "NOVA 1", "OBJECT_ID": "1981-044A", "EPOCH": "2025-12-26T17:32:44.124000", "MEAN_MOTION": 13.23280052, "ECCENTRICITY": 0.0015674, "INCLINATION": 89.8524, "RA_OF_ASC_NODE": 91.1873, "ARG_OF_PERICENTER": 69.5898, "MEAN_ANOMALY": 42.7753, "EPHEMERIS_TYPE": 0, "CLASSIFICATION_TYPE": "U", "NORAD_CAT_ID": 12458, "ELEMENT_SET_NO": 999, "REV_AT_EPOCH": 15371, "BSTAR": 0.00010865, "MEAN_MOTION_DOT": 5.5e-07, "MEAN_MOTION_DDOT": 0}, "tle": {"line1": "1 12458U 81044A   25360.73106625  .00000055  00000+0  10865-3 0  9995", "line2": "2 12458  89.8524  91.1873 0015674  69.5898  42.7753 13.23280052153716"}}, "geometry": {"type": "Point", "coordinates": [91.2068831604255, 8.660852115324117]}}, {"type": "Feature", "properties": {"norad_id": 15362, "name": "NOVA 3", "group": "nnss", "lat": -49.45534766429486, "lon": -99.44078681215449, "alt_km": 1169.2608297877277, "timestamp": "2025-12-26T22:28:06.052783+00:00", "meta": {"OBJECT_NAME": "NOVA 3", "OBJECT_ID": "1984-110A", "EPOCH": "2025-12-26T12:17:22.808256", "MEAN_MOTION": 13.23046399, "ECCENTRICITY": 0.0029843, "INCLINATION": 90.1217, "RA_OF_ASC_NODE": 80.6966, "ARG_OF_PERICENTER": 292.1662, "MEAN_ANOMALY": 78.6503, "EPHEMERIS_TYPE": 0, "CLASSIFICATION_TYPE": "U", "NORAD_CAT_ID": 15362, "ELEMENT_SET_NO": 999, "REV_AT_EPOCH": 98881, "BSTAR": 0.00016271828, "MEAN_MOTION_DOT": 7.7e-07, "MEAN_MOTION_DDOT": 0}, "tle": {"line1": "1 15362U 84110A   25360.51206954  .00000077  00000+0  16272-3 0  9993", "line2": "2 15362  90.1217  80.6966 0029843 292.1662  78.6503 13.23046399988811"}}, "geometry": {"type": "Point", "coordinates": [-99.44078681215449, -49.45534766429486]}}, {"type": "Feature", "properties": {"norad_id": 15935, "name": "OSCAR 30", "group": "nnss", "lat": -74.69679684489557, "lon": -80.52534667195825, "alt_km": 1239.9314373652596, "timestamp": "2025-12-26T22:28:06.052794+00:00", "meta": {"OBJECT_NAME": "OSCAR 30", "OBJECT_ID": "1985-066A", "EPOCH": "2025-12-26T18:09:23.815296", "MEAN_MOTION": 13.36080704, "ECCENTRICITY": 0.0168744, "INCLINATION": 90.1653, "RA_OF_ASC_NODE": 100.0762, "ARG_OF_PERICENTER": 44.7156, "MEAN_ANOMALY": 67.3239, "EPHEMERIS_TYPE": 0, "CLASSIFICATION_TYPE": "U", "NORAD_CAT_ID": 15935, "ELEMENT_SET_NO": 999, "REV_AT_EPOCH": 96640, "BSTAR": 0.00016878, "MEAN_MOTION_DOT": 1.03e-06, "MEAN_MOTION_DDOT": 0}, "tle": {"line1": "1 15935U 85066A   25360.75652564  .00000103  00000+0  16878-3 0  9990", "line2": "2 15935  90.1653 100.0762 0168744  44.7156  67.3239 13.36080704966409"}}, "geometry": {"type": "Point", "coordinates": [-80.52534667195825, -74.69679684489557]}}, {"type": "Feature", "properties": {"norad_id": 15936, "name": "OSCAR 24", "group": "nnss", "lat": -38.32588380287858, "lon": 92.69826399292246, "alt_km": 1126.2727552232964, "timestamp": "2025-12-26T22:28:06.052805+00:00", "meta": {"OBJECT_NAME": "OSCAR 24", "OBJECT_ID": "1985-066B", "EPOCH": "2025-12-26T18:04:47.699040", "MEAN_MOTION": 13.35937879, "ECCENTRICITY": 0.0169932, "INCLINATION": 90.1792, "RA_OF_ASC_NODE": 92.5533, "ARG_OF_PERICENTER": 51.1801, "MEAN_ANOMALY": 113.6506, "EPHEMERIS_TYPE": 0, "CLASSIFICATION_TYPE": "U", "NORAD_CAT_ID": 15936, "ELEMENT_SET_NO": 999, "REV_AT_EPOCH": 96830, "BSTAR": 0.00014654, "MEAN_MOTION_DOT": 9.1e-07, "MEAN_MOTION_DDOT": 0}, "tle": {"line1": "1 15936U 85066B   25360.75332985  .00000091  00000+0  14654-3 0  9999", "line2": "2 15936  90.1792  92.5533 0169932  51.1801 113.6506 13.35937879968300"}}, "geometry": {"type": "Point", "coordinates": [92.69826399292246, -38.32588380287858]}}]}